#aV2012 10 22  0  0  0.00000000     288 DD+AD WGS84 FIT  NGA
## 1711  86400.00000000   300.00000000 56222 0.0000000000000
+   31     1  2  3  4  5  6  7  8  9 10 11 12 13 14 15 16 17
+         18 19 20 21 22 23 24 25 26 28 29 30 31 32  0  0  0
+          0  0  0  0  0  0  0  0  0  0  0  0  0  0  0  0  0
+          0  0  0  0  0  0  0  0  0  0  0  0  0  0  0  0  0
+          0  0  0  0  0  0  0  0  0  0  0  0  0  0  0  0  0
++         2  2  2  2  2  2  2  2  2  2  2  2  2  2  2  2  2
++         2  2  2  2  2  2  2  2  2  2  2  2  2  2  2  0  0
++         0  0  0  0  0  0  0  0  0  0  0  0  0  0  0  0  0
++         0  0  0  0  0  0  0  0  0  0  0  0  0  0  0  0  0
++         0  0  0  0  0  0  0  0  0  0  0  0  0  0  0  0  0
%c cc cc ccc ccc cccc cccc cccc cccc ccccc ccccc ccccc ccccc
%c cc cc ccc ccc cccc cccc cccc cccc ccccc ccccc ccccc ccccc
%f  0.0000000  0.000000000  0.00000000000  0.000000000000000
%f  0.0000000  0.000000000  0.00000000000  0.000000000000000
%i    0    0    0    0      0      0      0      0         0
%i    0    0    0    0      0      0      0      0         0
/*      NGA, ST. LOUIS,MO.                                  
/*   EPHEMERIS COMPUTED FROM  1 DAYS OF DATA
/*   EPOCHA SMOOTHER  
/* CCCCCCCCCCCCCCCCCCCCCCCCCCCCCCCCCCCCCCCCCCCCCCCCCCCCCCCCC
*  2012 10 22 20 15  0.00000000                                                 
P  1  18024.534058  13993.882280 -13658.244241    278.966737                    
V  1 -17333.848246  -1795.357101 -24693.143694      0.016961                    
P  2   3422.785595 -15387.162434  21524.751951    406.720279                    
V  2  26411.977783   5922.544559   -474.620499      0.011236                    
P  3  -6066.426070  23299.628171 -11439.092808    118.122724                    
V  3 -10658.634162   9527.794783  26449.231001      0.051348                    
P  4  19187.575207  -7945.374940  16453.355796     23.935333                    
V  4  20318.410816   6916.345419 -19725.270354      0.112326                    
P  5  -1002.713235 -24943.792496   8840.339601   -361.360045                    
V  5   6164.428066   9950.373222  28836.155725     -0.027090                    
P  6 -12190.371648  22390.045996  -6729.295934    477.956373                    
V  6  -8393.312882   4441.532063  29866.118137     -0.097907                    
P  7  25876.201307   6655.418622    180.521323    136.546101                    
V  7   -690.429551   1987.949592  31894.799729      0.045465                    
P  8  23832.462112    -88.371666 -12242.608872      2.502849                    
V  8  14257.146537   5951.237320  26930.699051      0.001450                    
P  9 -13622.108708 -15077.601161 -17617.939464    194.283392                    
V  9  21000.689428   3569.278938 -19981.027631      0.027404                    
P 10  11635.218868 -12270.597381  20116.703029    -56.060962                    
V 10   8452.118857  24946.822439  10598.259373     -0.011613                    
P 11  13248.253205  14370.153362 -18515.834416   -315.490560                    
V 11 -22745.851627   3282.618247 -13742.153668     -0.039374                    
P 12 -11699.416424 -22579.333990   7978.870584     97.584596                    
V 12   -864.211612 -10217.191865 -29925.139939      0.020341                    
P 13  18073.327821   1218.330005  19331.172256    172.560254                    
V 13 -17916.768388  17082.333354  15458.943466     -0.026625                    
P 14 -21559.136592  13569.426611  -7046.357096    215.348888                    
V 14   5153.089242  -8012.104716 -30492.345576      0.007537                    
P 15  -3300.187825 -17600.454472 -19549.786332    -97.883264                    
V 15  17732.059866 -17605.980374  13090.903222     -0.008412                    
P 16     91.256172  24812.432728   9020.147532   -248.376520                    
V 16  -4956.049502 -10637.981807  29595.519450     -0.006308                    
P 17  21125.295540 -14278.576583  -6784.507054     85.530563                    
V 17  -4342.863080   8284.797460 -30376.719970     -0.034332                    
P 18 -16840.061562  -5469.000603 -19514.400796    220.958908                    
V 18  -6010.731673 -24951.072919  11595.811928      0.018382                    
P 19   -446.361201  18321.100521 -19150.496196   -315.305310                    
V 19 -19166.265121  15016.483514  15262.603961     -0.034467                    
P 20  14390.896056  20413.250495   8977.404611     71.233969                    
V 20    686.879355  12131.565027 -28098.137942      0.010231                    
P 21 -26339.450986  -4381.184635  -2439.209523   -257.522938                    
V 21  -2819.571992  -4032.555517  30536.081188     -0.023750                    
P 22 -13043.738860  10273.348385 -20522.262313    149.862263                    
V 22  -8470.291181 -25281.755907  -7333.778350      0.007137                    
P 23   9729.862591  11888.762410  21704.143847    151.693570                    
V 23 -19308.797779  19521.798035  -2423.116137     -0.038848                    
P 24  23430.896561  10650.630645   7462.851542      2.157203                    
V 24  -9607.547750    332.915100  29701.766331      0.016271                    
P 25 -16150.658521 -12118.921846  17248.833663     47.634521                    
V 25  -5084.431538 -21386.714459 -19677.893925      0.016460                    
P 26   9163.924165 -20791.299646 -14071.565343   -236.982687                    
V 26  13791.902367  -9968.418768  25161.176925      0.134992                    
P 28  13458.876002  -5763.678811 -21584.414290    197.494688                    
V 28   7204.605728  27817.508835  -3068.227039      0.035816                    
P 29 -16620.667879  -3620.631229  20439.655516    368.976155                    
V 29  17844.577505 -18713.264586  11261.756312      0.040217                    
P 30  -5342.932533  18923.911854  17509.068141   -352.748283                    
V 30 -10410.656671 -20506.832869  18586.110931      0.168956                    
P 31 -16111.326471   9203.317088  19292.625934    282.289522                    
V 31 -22980.104890  -6812.105173 -15857.634779      0.023168                    
P 32   6768.750092  25916.482512   1813.693152   -500.747397                    
V 32  -2204.633654   2564.951194 -31097.964689     -0.036787                    
EOF
